[{"OBJECT_NAME":"STARLINK-30963","OBJECT_ID":"2023-183H","EPOCH":"2026-03-09T22:00:01.999584","MEAN_MOTION":15.26727967,"ECCENTRICITY":0.00013998,"INCLINATION":43.0019,"RA_OF_ASC_NODE":40.0847,"ARG_OF_PERICENTER":255.6072,"MEAN_ANOMALY":43.2481,"EPHEMERIS_TYPE":0,"CLASSIFICATION_TYPE":"U","NORAD_CAT_ID":58444,"ELEMENT_SET_NO":999,"REV_AT_EPOCH":577,"BSTAR":0.0019649935,"MEAN_MOTION_DOT":0.00052808,"MEAN_MOTION_DDOT":0},{"OBJECT_NAME":"LIZZIESAT-1 (LS-1)","OBJECT_ID":"2024-043AL","EPOCH":"2026-03-09T21:24:55.126944","MEAN_MOTION":15.26635712,"ECCENTRICITY":0.00099234,"INCLINATION":97.5461,"RA_OF_ASC_NODE":203.4772,"ARG_OF_PERICENTER":229.9925,"MEAN_ANOMALY":130.0443,"EPHEMERIS_TYPE":0,"CLASSIFICATION_TYPE":"U","NORAD_CAT_ID":59132,"ELEMENT_SET_NO":999,"REV_AT_EPOCH":11178,"BSTAR":0.0002232873,"MEAN_MOTION_DOT":5.784e-5,"MEAN_MOTION_DDOT":0}]
